start=new Date('2021-09-04T00:00:00.000Z').valueOf();
sats=[{"REV_AT_EPOCH":"1862","LAUNCH_DATE":"2021-05-04","EPOCH":"2021-09-03T13:36:19.308960","MEAN_MOTION_DOT":"-0.00001175","COUNTRY_CODE":"US","OBJECT_TYPE":"PAYLOAD","APOAPSIS":"560.805","DECAY_DATE":null,"GP_ID":"184050827","REF_FRAME":"TEME","NORAD_CAT_ID":"48356","ECCENTRICITY":"0.00015400","MEAN_ANOMALY":"310.5646","OBJECT_ID":"2021-038D","ELEMENT_SET_NO":"999","ARG_OF_PERICENTER":"49.5475","BSTAR":"-0.00006769900000","OBJECT_NAME":"STARLINK-2637","PERIOD":"95.852","CLASSIFICATION_TYPE":"U","EPHEMERIS_TYPE":"0","TLE_LINE2":"2 48356  53.0540 199.8626 0001540  49.5475 310.5646 15.02323210 18621","FILE":"3108332","TLE_LINE1":"1 48356U 21038D   21246.56689015 -.00001175  00000-0 -67699-4 0  9992","MEAN_ELEMENT_THEORY":"SGP4","CENTER_NAME":"EARTH","PERIAPSIS":"558.668","MEAN_MOTION_DDOT":"0.0000000000000","RCS_SIZE":"LARGE","MEAN_MOTION":"15.02323210","INCLINATION":"53.0540","SITE":"AFETR","TIME_SYSTEM":"UTC","RA_OF_ASC_NODE":"199.8626","SEMIMAJOR_AXIS":"6937.872"},{"ELEMENT_SET_NO":"999","OBJECT_ID":"2021-038E","NORAD_CAT_ID":"48357","ECCENTRICITY":"0.00015390","REF_FRAME":"TEME","MEAN_ANOMALY":"320.3367","BSTAR":"0.00007691800000","OBJECT_NAME":"STARLINK-2636","ARG_OF_PERICENTER":"39.7735","OBJECT_TYPE":"PAYLOAD","COUNTRY_CODE":"US","LAUNCH_DATE":"2021-05-04","REV_AT_EPOCH":"1862","MEAN_MOTION_DOT":"0.00000864","EPOCH":"2021-09-03T14:19:09.578496","GP_ID":"184051333","DECAY_DATE":null,"APOAPSIS":"548.316","MEAN_MOTION":"15.06387889","INCLINATION":"53.0547","RCS_SIZE":"LARGE","SEMIMAJOR_AXIS":"6925.386","RA_OF_ASC_NODE":"200.1863","SITE":"AFETR","TIME_SYSTEM":"UTC","TLE_LINE1":"1 48357U 21038E   21246.59663864  .00000864  00000-0  76918-4 0  9996","PERIOD":"95.593","EPHEMERIS_TYPE":"0","CLASSIFICATION_TYPE":"U","FILE":"3108332","TLE_LINE2":"2 48357  53.0547 200.1863 0001539  39.7735 320.3367 15.06387889 18621","MEAN_MOTION_DDOT":"0.0000000000000","CENTER_NAME":"EARTH","PERIAPSIS":"546.185","MEAN_ELEMENT_THEORY":"SGP4"},{"MEAN_MOTION":"15.06402136","INCLINATION":"53.0517","RCS_SIZE":"LARGE","SEMIMAJOR_AXIS":"6925.342","RA_OF_ASC_NODE":"200.2294","SITE":"AFETR","TIME_SYSTEM":"UTC","TLE_LINE1":"1 48358U 21038F   21246.59294586  .00001044  00000-0  88992-4 0  9994","PERIOD":"95.592","EPHEMERIS_TYPE":"0","CLASSIFICATION_TYPE":"U","FILE":"3108332","TLE_LINE2":"2 48358  53.0517 200.2294 0001544  52.2049 307.9079 15.06402136 18615","MEAN_MOTION_DDOT":"0.0000000000000","PERIAPSIS":"546.138","CENTER_NAME":"EARTH","MEAN_ELEMENT_THEORY":"SGP4","OBJECT_ID":"2021-038F","ELEMENT_SET_NO":"999","NORAD_CAT_ID":"48358","ECCENTRICITY":"0.00015440","REF_FRAME":"TEME","MEAN_ANOMALY":"307.9079","OBJECT_NAME":"STARLINK-2624","BSTAR":"0.00008899200000","ARG_OF_PERICENTER":"52.2049","OBJECT_TYPE":"PAYLOAD","COUNTRY_CODE":"US","LAUNCH_DATE":"2021-05-04","REV_AT_EPOCH":"1861","MEAN_MOTION_DOT":"0.00001044","EPOCH":"2021-09-03T14:13:50.522304","GP_ID":"184050572","DECAY_DATE":null,"APOAPSIS":"548.276"},{"ARG_OF_PERICENTER":"59.7555","BSTAR":"0.00007099300000","OBJECT_NAME":"STARLINK-2628","MEAN_ANOMALY":"300.3598","REF_FRAME":"TEME","ECCENTRICITY":"0.00016560","NORAD_CAT_ID":"48359","ELEMENT_SET_NO":"999","OBJECT_ID":"2021-038G","APOAPSIS":"548.369","DECAY_DATE":null,"GP_ID":"184051103","EPOCH":"2021-09-03T14:08:32.000064","MEAN_MOTION_DOT":"0.00000776","REV_AT_EPOCH":"1861","LAUNCH_DATE":"2021-05-04","COUNTRY_CODE":"US","OBJECT_TYPE":"PAYLOAD","TIME_SYSTEM":"UTC","SITE":"AFETR","RA_OF_ASC_NODE":"200.2201","SEMIMAJOR_AXIS":"6925.357","RCS_SIZE":"LARGE","INCLINATION":"53.0530","MEAN_MOTION":"15.06397192","MEAN_ELEMENT_THEORY":"SGP4","PERIAPSIS":"546.075","CENTER_NAME":"EARTH","MEAN_MOTION_DDOT":"0.0000000000000","TLE_LINE2":"2 48359  53.0530 200.2201 0001656  59.7555 300.3598 15.06397192 18615","FILE":"3108332","PERIOD":"95.592","CLASSIFICATION_TYPE":"U","EPHEMERIS_TYPE":"0","TLE_LINE1":"1 48359U 21038G   21246.58925926  .00000776  00000-0  70993-4 0  9996"},{"INCLINATION":"53.0542","MEAN_MOTION":"15.06391609","RCS_SIZE":"LARGE","RA_OF_ASC_NODE":"199.9330","SEMIMAJOR_AXIS":"6925.374","TIME_SYSTEM":"UTC","SITE":"AFETR","TLE_LINE1":"1 48360U 21038H   21246.65193468  .00000807  00000-0  73111-4 0  9994","TLE_LINE2":"2 48360  53.0542 199.9330 0001438  42.9212 317.1889 15.06391609 18626","FILE":"3108332","PERIOD":"95.593","EPHEMERIS_TYPE":"0","CLASSIFICATION_TYPE":"U","PERIAPSIS":"546.243","CENTER_NAME":"EARTH","MEAN_MOTION_DDOT":"0.0000000000000","MEAN_ELEMENT_THEORY":"SGP4","ELEMENT_SET_NO":"999","OBJECT_ID":"2021-038H","MEAN_ANOMALY":"317.1889","REF_FRAME":"TEME","NORAD_CAT_ID":"48360","ECCENTRICITY":"0.00014380","BSTAR":"0.00007311100000","OBJECT_NAME":"STARLINK-2622","ARG_OF_PERICENTER":"42.9212","COUNTRY_CODE":"US","OBJECT_TYPE":"PAYLOAD","EPOCH":"2021-09-03T15:38:47.156352","MEAN_MOTION_DOT":"0.00000807","LAUNCH_DATE":"2021-05-04","REV_AT_EPOCH":"1862","DECAY_DATE":null,"GP_ID":"184051150","APOAPSIS":"548.235"},{"SEMIMAJOR_AXIS":"6925.361","RA_OF_ASC_NODE":"200.3342","TIME_SYSTEM":"UTC","SITE":"AFETR","INCLINATION":"53.0541","MEAN_MOTION":"15.06395803","RCS_SIZE":"LARGE","MEAN_MOTION_DDOT":"0.0000000000000","PERIAPSIS":"546.401","CENTER_NAME":"EARTH","MEAN_ELEMENT_THEORY":"SGP4","TLE_LINE1":"1 48361U 21038J   21246.58188749 -.00000410  00000-0 -86421-5 0  9994","FILE":"3108332","TLE_LINE2":"2 48361  53.0541 200.3342 0001192  81.4798 278.6326 15.06395803 18616","PERIOD":"95.592","EPHEMERIS_TYPE":"0","CLASSIFICATION_TYPE":"U","BSTAR":"-0.00000864210000","OBJECT_NAME":"STARLINK-2591","ARG_OF_PERICENTER":"81.4798","OBJECT_ID":"2021-038J","ELEMENT_SET_NO":"999","MEAN_ANOMALY":"278.6326","NORAD_CAT_ID":"48361","ECCENTRICITY":"0.00011920","REF_FRAME":"TEME","GP_ID":"184051011","DECAY_DATE":null,"APOAPSIS":"548.052","OBJECT_TYPE":"PAYLOAD","COUNTRY_CODE":"US","MEAN_MOTION_DOT":"-0.00000410","EPOCH":"2021-09-03T13:57:55.079136","REV_AT_EPOCH":"1861","LAUNCH_DATE":"2021-05-04"},{"MEAN_MOTION_DDOT":"0.0000000000000","CENTER_NAME":"EARTH","PERIAPSIS":"551.078","MEAN_ELEMENT_THEORY":"SGP4","TLE_LINE1":"1 48362U 21038K   21246.67695014  .00000695  00000-0  68166-4 0  9991","CLASSIFICATION_TYPE":"U","PERIOD":"95.696","EPHEMERIS_TYPE":"0","FILE":"3108332","TLE_LINE2":"2 48362  53.0540 199.1172 0001631  47.4686 312.6440 15.04771702 18641","SEMIMAJOR_AXIS":"6930.344","RA_OF_ASC_NODE":"199.1172","SITE":"AFETR","TIME_SYSTEM":"UTC","MEAN_MOTION":"15.04771702","INCLINATION":"53.0540","RCS_SIZE":"LARGE","GP_ID":"184050072","DECAY_DATE":null,"APOAPSIS":"553.339","OBJECT_TYPE":"PAYLOAD","COUNTRY_CODE":"US","REV_AT_EPOCH":"1864","LAUNCH_DATE":"2021-05-04","MEAN_MOTION_DOT":"0.00000695","EPOCH":"2021-09-03T16:14:48.492096","BSTAR":"0.00006816600000","OBJECT_NAME":"STARLINK-2578","ARG_OF_PERICENTER":"47.4686","OBJECT_ID":"2021-038K","ELEMENT_SET_NO":"999","NORAD_CAT_ID":"48362","ECCENTRICITY":"0.00016310","REF_FRAME":"TEME","MEAN_ANOMALY":"312.6440"},{"RCS_SIZE":"LARGE","INCLINATION":"53.0552","MEAN_MOTION":"15.06389818","TIME_SYSTEM":"UTC","SITE":"AFETR","RA_OF_ASC_NODE":"195.3510","SEMIMAJOR_AXIS":"6925.380","TLE_LINE2":"2 48363  53.0552 195.3510 0001472  70.9471 289.1677 15.06389818 18684","FILE":"3108332","PERIOD":"95.593","CLASSIFICATION_TYPE":"U","EPHEMERIS_TYPE":"0","TLE_LINE1":"1 48363U 21038L   21246.55839487 -.00001051  00000-0 -51666-4 0  9999","MEAN_ELEMENT_THEORY":"SGP4","PERIAPSIS":"546.225","CENTER_NAME":"EARTH","MEAN_MOTION_DDOT":"0.0000000000000","MEAN_ANOMALY":"289.1677","REF_FRAME":"TEME","ECCENTRICITY":"0.00014720","NORAD_CAT_ID":"48363","OBJECT_ID":"2021-038L","ELEMENT_SET_NO":"999","ARG_OF_PERICENTER":"70.9471","BSTAR":"-0.00005166600000","OBJECT_NAME":"STARLINK-2626","EPOCH":"2021-09-03T13:24:05.316768","MEAN_MOTION_DOT":"-0.00001051","LAUNCH_DATE":"2021-05-04","REV_AT_EPOCH":"1868","COUNTRY_CODE":"US","OBJECT_TYPE":"PAYLOAD","APOAPSIS":"548.264","DECAY_DATE":null,"GP_ID":"184051425"},{"CENTER_NAME":"EARTH","PERIAPSIS":"546.019","MEAN_MOTION_DDOT":"0.0000000000000","MEAN_ELEMENT_THEORY":"SGP4","TLE_LINE1":"1 48364U 21038M   21246.55376248 -.00001051  00000-0 -51649-4 0  9992","TLE_LINE2":"2 48364  53.0555 195.3712 0001772  61.9102 298.2066 15.06389299 18682","FILE":"3108332","PERIOD":"95.593","EPHEMERIS_TYPE":"0","CLASSIFICATION_TYPE":"U","RA_OF_ASC_NODE":"195.3712","SEMIMAJOR_AXIS":"6925.381","TIME_SYSTEM":"UTC","SITE":"AFETR","INCLINATION":"53.0555","MEAN_MOTION":"15.06389299","RCS_SIZE":"LARGE","DECAY_DATE":null,"GP_ID":"184050828","APOAPSIS":"548.474","COUNTRY_CODE":"US","OBJECT_TYPE":"PAYLOAD","EPOCH":"2021-09-03T13:17:25.078272","MEAN_MOTION_DOT":"-0.00001051","REV_AT_EPOCH":"1868","LAUNCH_DATE":"2021-05-04","BSTAR":"-0.00005164900000","OBJECT_NAME":"STARLINK-2611","ARG_OF_PERICENTER":"61.9102","OBJECT_ID":"2021-038M","ELEMENT_SET_NO":"999","MEAN_ANOMALY":"298.2066","REF_FRAME":"TEME","NORAD_CAT_ID":"48364","ECCENTRICITY":"0.00017720"},{"MEAN_MOTION":"15.06391683","INCLINATION":"53.0560","RCS_SIZE":"LARGE","RA_OF_ASC_NODE":"195.1702","SEMIMAJOR_AXIS":"6925.374","SITE":"AFETR","TIME_SYSTEM":"UTC","TLE_LINE1":"1 48365U 21038N   21246.59896057  .00000962  00000-0  83508-4 0  9999","PERIOD":"95.593","EPHEMERIS_TYPE":"0","CLASSIFICATION_TYPE":"U","TLE_LINE2":"2 48365  53.0560 195.1702 0001707  59.5899 300.5259 15.06391683 18692","FILE":"3108332","CENTER_NAME":"EARTH","PERIAPSIS":"546.057","MEAN_MOTION_DDOT":"0.0000000000000","MEAN_ELEMENT_THEORY":"SGP4","ELEMENT_SET_NO":"999","OBJECT_ID":"2021-038N","REF_FRAME":"TEME","NORAD_CAT_ID":"48365","ECCENTRICITY":"0.00017070","MEAN_ANOMALY":"300.5259","BSTAR":"0.00008350800000","OBJECT_NAME":"STARLINK-2608","ARG_OF_PERICENTER":"59.5899","COUNTRY_CODE":"US","OBJECT_TYPE":"PAYLOAD","REV_AT_EPOCH":"1869","LAUNCH_DATE":"2021-05-04","EPOCH":"2021-09-03T14:22:30.193248","MEAN_MOTION_DOT":"0.00000962","DECAY_DATE":null,"GP_ID":"184051334","APOAPSIS":"548.421"}];
